NORAD_CAT_ID,OBJECT_NAME,OBJECT_TYPE,EPOCH,MEAN_MOTION,ECCENTRICITY,INCLINATION,RA_OF_ASC_NODE,ARG_OF_PERICENTER,MEAN_ANOMALY,BSTAR,MEAN_MOTION_DOT,MEAN_MOTION_DDOT,TLE_LINE0,TLE_LINE1,TLE_LINE2,SEMIMAJOR_AXIS,PERIOD,APOGEE,PERIGEE,DECAYED
55963.0,STARLINK-5924,PAYLOAD,2024-08-21 03:54:25,14.98324141,0.0003285,69.9978,250.3103,273.1338,86.9445,7.8474e-06,1e-08,0.0,0 STARLINK-5924,1 55963U 23037BB  24234.16279832  .00000001  00000-0  78474-5 0  9992,2 55963  69.9978 250.3103 0003285 273.1338  86.9445 14.98324141 80109,6950.211,96.107,574.359,569.793,0.0
55963.0,STARLINK-5924,PAYLOAD,2024-08-21 10:18:57,14.98327203,0.0003176,69.9982,249.6377,271.5465,88.5331,5.0112e-05,5.05e-06,0.0,0 STARLINK-5924,1 55963U 23037BB  24234.42983642  .00000505  00000-0  50112-4 0  9999,2 55963  69.9982 249.6377 0003176 271.5465  88.5331 14.98327203 79809,6950.202,96.107,574.274,569.859,0.0
